[{"OBJECT_NAME":"STARLINK-4034","OBJECT_ID":"2022-053AW","EPOCH":"2026-03-09T11:41:52.098720","MEAN_MOTION":15.08836902,"ECCENTRICITY":0.00015056,"INCLINATION":53.2168,"RA_OF_ASC_NODE":149.6722,"ARG_OF_PERICENTER":83.6284,"MEAN_ANOMALY":276.4879,"EPHEMERIS_TYPE":0,"CLASSIFICATION_TYPE":"U","NORAD_CAT_ID":52700,"ELEMENT_SET_NO":999,"REV_AT_EPOCH":21106,"BSTAR":3.0641305e-5,"MEAN_MOTION_DOT":2.0e-6,"MEAN_MOTION_DDOT":0},{"OBJECT_NAME":"NOAA 17 DEB","OBJECT_ID":"2002-032AW","EPOCH":"2026-03-09T06:42:02.833344","MEAN_MOTION":15.0155296,"ECCENTRICITY":0.0036655,"INCLINATION":98.9692,"RA_OF_ASC_NODE":191.508,"ARG_OF_PERICENTER":264.8759,"MEAN_ANOMALY":94.8277,"EPHEMERIS_TYPE":0,"CLASSIFICATION_TYPE":"U","NORAD_CAT_ID":48713,"ELEMENT_SET_NO":999,"REV_AT_EPOCH":26502,"BSTAR":0.0031489084,"MEAN_MOTION_DOT":0.00041514,"MEAN_MOTION_DDOT":0}]
